{
    "addresses":[
        {"ID":999003,"address1":"5 Anthes Street","address2":null,"city":"Memphis","state":"TN","zip":"38136"},
        {"ID":999004,"address1":"7 Delladonna Place","address2":null,"city":"Albuquerque","state":"NM","zip":"87115"},
        {"ID":999005,"address1":"614 Prentice Lane","address2":null,"city":"Houston","state":"TX","zip":"77276"},
        {"ID":999006,"address1":"28 Hovde Court","address2":null,"city":"Sacramento","state":"CA","zip":"95852"},
        {"ID":999007,"address1":"948 Holmberg Park","address2":null,"city":"Wilkes Barre","state":"PA","zip":"18763"},
        {"ID":999008,"address1":"958 Texas Park","address2":"Apt 635","city":"Bryan","state":"TX","zip":"77806"},
        {"ID":999009,"address1":"8 Sommers Lane","address2":null,"city":"Saint Paul","state":"MN","zip":"55114"},
        {"ID":999010,"address1":"4785 Monument Court","address2":null,"city":"Philadelphia","state":"PA","zip":"19120"},
        {"ID":999011,"address1":"8819 Portage Way","address2":null,"city":"Dallas","state":"TX","zip":"75251"},
        {"ID":999012,"address1":"3 Utah Avenue","address2":null,"city":"Saint Louis","state":"MO","zip":"63121"},
        {"ID":999013,"address1":"6814 Buell Circle","address2":null,"city":"Lubbock","state":"TX","zip":"79410"},
        {"ID":999014,"address1":"266 Scoville Road","address2":null,"city":"Athens","state":"GA","zip":"30610"},
        {"ID":999015,"address1":"7634 Shopko Way","address2":null,"city":"Atlanta","state":"GA","zip":"31106"},
        {"ID":999016,"address1":"628 Pepper Wood Avenue","address2":null,"city":"Saint Joseph","state":"MO","zip":"64504"},
        {"ID":999017,"address1":"4 Moose Plaza","address2":null,"city":"Des Moines","state":"IA","zip":"50310"},
        {"ID":999018,"address1":"82660 Karstens Terrace","address2":null,"city":"Spokane","state":"WA","zip":"99215"},
        {"ID":999019,"address1":"01921 Independence Court","address2":null,"city":"Dayton","state":"OH","zip":"45454"},
        {"ID":999020,"address1":"9313 Erie Way","address2":null,"city":"Oxnard","state":"CA","zip":"93034"},
        {"ID":999021,"address1":"9 Pankratz Center","address2":null,"city":"Zephyrhills","state":"FL","zip":"33543"},
        {"ID":999022,"address1":"26 Kenwood Center","address2":null,"city":"Melbourne","state":"FL","zip":"32919"},
        {"ID":999023,"address1":"4 Texas Court","address2":null,"city":"Bakersfield","state":"CA","zip":"93386"},
        {"ID":999024,"address1":"505 Truax Center","address2":null,"city":"Houston","state":"TX","zip":"77201"},
        {"ID":999025,"address1":"17906 Mcbride Alley","address2":null,"city":"El Paso","state":"TX","zip":"88574"},
        {"ID":999026,"address1":"5 Monica Avenue","address2":null,"city":"El Paso","state":"TX","zip":"88525"},
        {"ID":999027,"address1":"070 Charing Cross Junction","address2":null,"city":"Boston","state":"MA","zip":"02109"},
        {"ID":999028,"address1":"432 Golf Crossing","address2":null,"city":"Memphis","state":"TN","zip":"38126"},
        {"ID":999029,"address1":"170 7th Street","address2":null,"city":"Charleston","state":"WV","zip":"25313"},
        {"ID":999030,"address1":"9776 Forest Run Court","address2":"Room 1298","city":"Des Moines","state":"IA","zip":"50981"},
        {"ID":999031,"address1":"0 Brickson Park Court","address2":null,"city":"Atlanta","state":"GA","zip":"30392"},
        {"ID":999032,"address1":"4 Dixon Place","address2":null,"city":"Van Nuys","state":"CA","zip":"91406"},
        {"ID":999033,"address1":"27699 Clemons Plaza","address2":null,"city":"Reno","state":"NV","zip":"89550"},
        {"ID":999034,"address1":"277 Forest Park","address2":null,"city":"Young America","state":"MN","zip":"55551"},
        {"ID":999035,"address1":"74865 Jackson Road","address2":null,"city":"Bakersfield","state":"CA","zip":"93311"},
        {"ID":999036,"address1":"58431 Vahlen Road","address2":null,"city":"Sandy","state":"UT","zip":"84093"},
        {"ID":999037,"address1":"9549 Cascade Hill","address2":null,"city":"Oklahoma City","state":"OK","zip":"73129"},
        {"ID":999038,"address1":"979 Johnson Alley","address2":null,"city":"Dallas","state":"TX","zip":"75226"},
        {"ID":999039,"address1":"81 Ronald Regan Plaza","address2":null,"city":"Duluth","state":"GA","zip":"30096"},
        {"ID":999040,"address1":"0152 Sachs Pass","address2":null,"city":"Miami","state":"FL","zip":"33134"},
        {"ID":999041,"address1":"1 Macpherson Point","address2":null,"city":"Fayetteville","state":"NC","zip":"28305"},
        {"ID":999042,"address1":"45 Artisan Park","address2":null,"city":"Littleton","state":"CO","zip":"80127"},
        {"ID":999043,"address1":"273 Bellgrove Drive","address2":null,"city":"Houston","state":"TX","zip":"77095"},
        {"ID":999044,"address1":"9 International Point","address2":null,"city":"Chicago","state":"IL","zip":"60691"},
        {"ID":999045,"address1":"5029 Mayer Court","address2":null,"city":"Brooklyn","state":"NY","zip":"11220"},
        {"ID":999046,"address1":"534 Corscot Road","address2":null,"city":"Plano","state":"TX","zip":"75074"},
        {"ID":999047,"address1":"7 Browning Center","address2":null,"city":"Minneapolis","state":"MN","zip":"55470"},
        {"ID":999048,"address1":"34689 Ruskin Hill","address2":"Apt 849","city":"Lansing","state":"MI","zip":"48930"},
        {"ID":999049,"address1":"705 Springview Avenue","address2":"4th Floor","city":"Shawnee Mission","state":"KS","zip":"66215"},
        {"ID":999050,"address1":"15919 Cambridge Junction","address2":null,"city":"Lubbock","state":"TX","zip":"79452"},
        {"ID":999051,"address1":"4 Golf View Terrace","address2":null,"city":"Washington","state":"DC","zip":"20404"},
        {"ID":999052,"address1":"0 Granby Alley","address2":null,"city":"Louisville","state":"KY","zip":"40280"},
        {"ID":999053,"address1":"67 Southridge Plaza","address2":null,"city":"Arlington","state":"VA","zip":"22205"},
        {"ID":999054,"address1":"8834 Debs Terrace","address2":null,"city":"San Francisco","state":"CA","zip":"94177"},
        {"ID":999055,"address1":"31944 Mallard Hill","address2":null,"city":"Abilene","state":"TX","zip":"79605"},
        {"ID":999056,"address1":"4807 Nelson Lane","address2":"Apt 337","city":"Santa Ana","state":"CA","zip":"92705"},
        {"ID":999057,"address1":"29 Maryland Crossing","address2":null,"city":"Seminole","state":"FL","zip":"34642"},
        {"ID":999058,"address1":"749 Holmberg Place","address2":"Apt 375","city":"Memphis","state":"TN","zip":"38143"},
        {"ID":999059,"address1":"28 Buena Vista Hill","address2":null,"city":"Annapolis","state":"MD","zip":"21405"},
        {"ID":999060,"address1":"8871 Dottie Lane","address2":null,"city":"Appleton","state":"WI","zip":"54915"},
        {"ID":999061,"address1":"8011 Maryland Center","address2":null,"city":"Sioux Falls","state":"SD","zip":"57188"},
        {"ID":999062,"address1":"299 Mandrake Parkway","address2":null,"city":"North Port","state":"FL","zip":"34290"},
        {"ID":999063,"address1":"5056 Northridge Junction","address2":"7th Floor","city":"Buffalo","state":"NY","zip":"14269"},
        {"ID":999064,"address1":"4746 Hagan Avenue","address2":null,"city":"Kansas City","state":"MO","zip":"64187"},
        {"ID":999065,"address1":"1 Fallview Drive","address2":null,"city":"Fresno","state":"CA","zip":"93786"},
        {"ID":999066,"address1":"575 Hauk Center","address2":null,"city":"Indianapolis","state":"IN","zip":"46221"},
        {"ID":999067,"address1":"89895 6th Crossing","address2":null,"city":"Boston","state":"MA","zip":"02109"},
        {"ID":999068,"address1":"594 Debs Point","address2":"Room 1178","city":"Kansas City","state":"MO","zip":"64187"},
        {"ID":999069,"address1":"1 Division Center","address2":"PO Box 41856","city":"Richmond","state":"VA","zip":"23208"},
        {"ID":999070,"address1":"4370 Meadow Ridge Center","address2":null,"city":"Glendale","state":"AZ","zip":"85311"},
        {"ID":999071,"address1":"0933 Miller Drive","address2":null,"city":"Denver","state":"CO","zip":"80255"},
        {"ID":999072,"address1":"595 School Crossing","address2":null,"city":"Los Angeles","state":"CA","zip":"90055"},
        {"ID":999073,"address1":"15 Mitchell Court","address2":null,"city":"Worcester","state":"MA","zip":"01654"},
        {"ID":999074,"address1":"956 Bluejay Hill","address2":null,"city":"North Las Vegas","state":"NV","zip":"89036"},
        {"ID":999075,"address1":"0 Brentwood Court","address2":null,"city":"New Hyde Park","state":"NY","zip":"11044"},
        {"ID":999076,"address1":"8070 Brown Avenue","address2":null,"city":"Cambridge","state":"MA","zip":"02142"},
        {"ID":999077,"address1":"791 John Wall Court","address2":null,"city":"Schenectady","state":"NY","zip":"12305"},
        {"ID":999078,"address1":"3 Chinook Lane","address2":null,"city":"Levittown","state":"PA","zip":"19058"},
        {"ID":999079,"address1":"66687 Clarendon Plaza","address2":null,"city":"Garland","state":"TX","zip":"75049"},
        {"ID":999080,"address1":"257 Banding Plaza","address2":null,"city":"Norwalk","state":"CT","zip":"06859"},
        {"ID":999081,"address1":"602 Melvin Plaza","address2":null,"city":"Lancaster","state":"PA","zip":"17605"},
        {"ID":999082,"address1":"011 Kensington Park","address2":null,"city":"Saint Paul","state":"MN","zip":"55172"},
        {"ID":999083,"address1":"20 Fulton Alley","address2":null,"city":"Dallas","state":"TX","zip":"75367"},
        {"ID":999084,"address1":"2498 Lake View Drive","address2":null,"city":"Tallahassee","state":"FL","zip":"32304"},
        {"ID":999085,"address1":"64 Algoma Plaza","address2":null,"city":"Providence","state":"RI","zip":"02905"},
        {"ID":999086,"address1":"99549 Shelley Junction","address2":null,"city":"Spokane","state":"WA","zip":"99260"},
        {"ID":999087,"address1":"7833 Troy Park","address2":null,"city":"Murfreesboro","state":"TN","zip":"37131"},
        {"ID":999088,"address1":"6 Walton Park","address2":null,"city":"Davenport","state":"IA","zip":"52809"},
        {"ID":999089,"address1":"5 Sugar Hill","address2":null,"city":"San Diego","state":"CA","zip":"92191"},
        {"ID":999090,"address1":"705 Kings Court","address2":null,"city":"Knoxville","state":"TN","zip":"37939"},
        {"ID":999091,"address1":"15 Hansons Alley","address2":null,"city":"Albany","state":"NY","zip":"12222"},
        {"ID":999092,"address1":"9 Old Gate Avenue","address2":null,"city":"Washington","state":"DC","zip":"20057"},
        {"ID":999093,"address1":"431 Algoma Place","address2":"Apt 487","city":"Pittsburgh","state":"PA","zip":"15255"},
        {"ID":999094,"address1":"019 Gina Terrace","address2":null,"city":"Albany","state":"GA","zip":"31704"},
        {"ID":999095,"address1":"70 Brentwood Road","address2":null,"city":"Miami","state":"FL","zip":"33134"},
        {"ID":999096,"address1":"000 Talisman Road","address2":null,"city":"Washington","state":"DC","zip":"20220"},
        {"ID":999097,"address1":"35958 Sachs Way","address2":null,"city":"Boston","state":"MA","zip":"02283"},
        {"ID":999098,"address1":"083 Farmco Circle","address2":null,"city":"Philadelphia","state":"PA","zip":"19109"},
        {"ID":999099,"address1":"7933 Onsgard Point","address2":"Suite 91","city":"Santa Barbara","state":"CA","zip":"93106"},
        {"ID":999100,"address1":"78294 Judy Court","address2":null,"city":"Battle Creek","state":"MI","zip":"49018"},
        {"ID":999101,"address1":"505 Charing Cross Street","address2":null,"city":"San Antonio","state":"TX","zip":"78210"},
        {"ID":999102,"address1":"9 Kipling Park","address2":null,"city":"Washington","state":"DC","zip":"20599"},
        {"ID":999103,"address1":"2 Caliangt Plaza","address2":null,"city":"Lawrenceville","state":"GA","zip":"30045"},
        {"ID":999104,"address1":"5561 Mendota Drive","address2":null,"city":"Charleston","state":"WV","zip":"25362"},
        {"ID":999105,"address1":"310 Oak Court","address2":null,"city":"Baltimore","state":"MD","zip":"21211"},
        {"ID":999106,"address1":"3 Kropf Trail","address2":null,"city":"Macon","state":"GA","zip":"31217"},
        {"ID":999107,"address1":"6172 Delladonna Road","address2":null,"city":"Saint Paul","state":"MN","zip":"55115"},
        {"ID":999108,"address1":"1548 Judy Hill","address2":null,"city":"Torrance","state":"CA","zip":"90510"},
        {"ID":999109,"address1":"44 Dryden Trail","address2":null,"city":"Philadelphia","state":"PA","zip":"19120"},
        {"ID":999110,"address1":"084 Buena Vista Lane","address2":null,"city":"Cincinnati","state":"OH","zip":"45218"},
        {"ID":999111,"address1":"3 Upham Circle","address2":null,"city":"Boise","state":"ID","zip":"83716"},
        {"ID":999112,"address1":"070 Monument Plaza","address2":null,"city":"Silver Spring","state":"MD","zip":"20918"},
        {"ID":999113,"address1":"54682 Waywood Junction","address2":null,"city":"Manassas","state":"VA","zip":"22111"},
        {"ID":999114,"address1":"44137 Loomis Plaza","address2":null,"city":"North Las Vegas","state":"NV","zip":"89036"},
        {"ID":999115,"address1":"73 Packers Avenue","address2":"Suite 92","city":"Salt Lake City","state":"UT","zip":"84120"},
        {"ID":999116,"address1":"279 Thackeray Hill","address2":"Room 1312","city":"Washington","state":"DC","zip":"20566"},
        {"ID":999117,"address1":"5592 Florence Lane","address2":"PO Box 62325","city":"Anchorage","state":"AK","zip":"99512"},
        {"ID":999118,"address1":"62 Mendota Avenue","address2":null,"city":"Montgomery","state":"AL","zip":"36114"},
        {"ID":999119,"address1":"342 Kipling Circle","address2":null,"city":"Garland","state":"TX","zip":"75044"},
        {"ID":999120,"address1":"34839 Oxford Place","address2":null,"city":"Oakland","state":"CA","zip":"94660"},
        {"ID":999121,"address1":"368 Dottie Parkway","address2":null,"city":"Fresno","state":"CA","zip":"93721"},
        {"ID":999122,"address1":"06 Little Fleur Alley","address2":null,"city":"Charleston","state":"WV","zip":"25331"},
        {"ID":999123,"address1":"545 Warbler Road","address2":null,"city":"Philadelphia","state":"PA","zip":"19146"},
        {"ID":999124,"address1":"6 Fulton Crossing","address2":null,"city":"Birmingham","state":"AL","zip":"35263"},
        {"ID":999125,"address1":"4 Walton Circle","address2":null,"city":"Worcester","state":"MA","zip":"01654"},
        {"ID":999126,"address1":"0720 Mitchell Place","address2":null,"city":"Rochester","state":"NY","zip":"14604"},
        {"ID":999127,"address1":"3603 Loftsgordon Terrace","address2":"PO Box 49985","city":"Saint Louis","state":"MO","zip":"63167"},
        {"ID":999128,"address1":"7945 Park Meadow Trail","address2":null,"city":"Reno","state":"NV","zip":"89595"},
        {"ID":999129,"address1":"9240 Randy Court","address2":null,"city":"Flushing","state":"NY","zip":"11355"},
        {"ID":999130,"address1":"4187 Chive Crossing","address2":null,"city":"New York City","state":"NY","zip":"10079"},
        {"ID":999131,"address1":"27 Kensington Parkway","address2":null,"city":"Trenton","state":"NJ","zip":"08608"},
        {"ID":999132,"address1":"00151 Pepper Wood Terrace","address2":null,"city":"Littleton","state":"CO","zip":"80127"},
        {"ID":999133,"address1":"672 Di Loreto Place","address2":null,"city":"Albany","state":"NY","zip":"12205"},
        {"ID":999134,"address1":"3 Rowland Pass","address2":null,"city":"Memphis","state":"TN","zip":"38197"},
        {"ID":999135,"address1":"5901 Village Avenue","address2":"6th Floor","city":"Long Beach","state":"CA","zip":"90840"},
        {"ID":999136,"address1":"3 Ryan Way","address2":"PO Box 61130","city":"Minneapolis","state":"MN","zip":"55417"},
        {"ID":999137,"address1":"3235 Hintze Trail","address2":"Suite 60","city":"Washington","state":"DC","zip":"20470"},
        {"ID":999138,"address1":"46 6th Street","address2":"Room 1229","city":"New Haven","state":"CT","zip":"06533"},
        {"ID":999139,"address1":"84048 Florence Parkway","address2":null,"city":"New York City","state":"NY","zip":"10110"},
        {"ID":999140,"address1":"08 Oak Trail","address2":null,"city":"Springfield","state":"IL","zip":"62711"},
        {"ID":999141,"address1":"50 Basil Way","address2":null,"city":"Washington","state":"DC","zip":"20078"},
        {"ID":999142,"address1":"86291 Beilfuss Trail","address2":"Apt 864","city":"Homestead","state":"FL","zip":"33034"},
        {"ID":999143,"address1":"571 Stephen Circle","address2":null,"city":"Monticello","state":"MN","zip":"55590"},
        {"ID":999144,"address1":"516 Oak Circle","address2":"PO Box 34985","city":"Los Angeles","state":"CA","zip":"90087"},
        {"ID":999145,"address1":"14 Helena Court","address2":null,"city":"Fort Lauderdale","state":"FL","zip":"33305"},
        {"ID":999146,"address1":"954 Mcguire Junction","address2":null,"city":"Lincoln","state":"NE","zip":"68510"},
        {"ID":999147,"address1":"45024 Northland Court","address2":null,"city":"Lincoln","state":"NE","zip":"68510"},
        {"ID":999148,"address1":"9 Namekagon Avenue","address2":null,"city":"Springfield","state":"MA","zip":"01105"},
        {"ID":999149,"address1":"7365 Old Gate Way","address2":null,"city":"Boise","state":"ID","zip":"83757"},
        {"ID":999150,"address1":"84 Grover Drive","address2":null,"city":"Portland","state":"ME","zip":"04109"},
        {"ID":999151,"address1":"89 Arkansas Lane","address2":null,"city":"Jackson","state":"MS","zip":"39296"},
        {"ID":999152,"address1":"82120 Saint Paul Court","address2":null,"city":"Shawnee Mission","state":"KS","zip":"66215"},
        {"ID":999153,"address1":"8804 Golf View Lane","address2":null,"city":"Boston","state":"MA","zip":"02124"},
        {"ID":999154,"address1":"31205 Basil Place","address2":null,"city":"Punta Gorda","state":"FL","zip":"33982"},
        {"ID":999155,"address1":"654 Texas Hill","address2":null,"city":"North Little Rock","state":"AR","zip":"72118"},
        {"ID":999156,"address1":"9 Sutteridge Trail","address2":null,"city":"Jackson","state":"TN","zip":"38308"},
        {"ID":999157,"address1":"55428 Lake View Plaza","address2":null,"city":"Louisville","state":"KY","zip":"40233"},
        {"ID":999158,"address1":"54032 John Wall Lane","address2":null,"city":"Philadelphia","state":"PA","zip":"19104"},
        {"ID":999159,"address1":"09305 Merrick Way","address2":null,"city":"White Plains","state":"NY","zip":"10633"},
        {"ID":999160,"address1":"33 Waywood Place","address2":null,"city":"Charleston","state":"SC","zip":"29403"},
        {"ID":999161,"address1":"37306 Clarendon Crossing","address2":null,"city":"Oceanside","state":"CA","zip":"92056"},
        {"ID":999162,"address1":"0248 Lakeland Circle","address2":null,"city":"Tucson","state":"AZ","zip":"85743"},
        {"ID":999163,"address1":"506 Prentice Park","address2":null,"city":"Houston","state":"TX","zip":"77299"},
        {"ID":999164,"address1":"13849 Bluestem Point","address2":null,"city":"Atlanta","state":"GA","zip":"30323"},
        {"ID":999165,"address1":"254 Lerdahl Park","address2":"Apt 1057","city":"Spokane","state":"WA","zip":"99205"},
        {"ID":999166,"address1":"299 Hintze Trail","address2":null,"city":"Indianapolis","state":"IN","zip":"46207"},
        {"ID":999167,"address1":"681 Jana Trail","address2":null,"city":"Savannah","state":"GA","zip":"31422"},
        {"ID":999168,"address1":"06 Oakridge Terrace","address2":null,"city":"Las Vegas","state":"NV","zip":"89178"},
        {"ID":999169,"address1":"060 Crescent Oaks Point","address2":"Room 1013","city":"Montgomery","state":"AL","zip":"36177"},
        {"ID":999170,"address1":"9924 Granby Hill","address2":null,"city":"Columbia","state":"SC","zip":"29220"},
        {"ID":999171,"address1":"3211 Ilene Junction","address2":"Suite 17","city":"Portland","state":"OR","zip":"97232"},
        {"ID":999172,"address1":"0 Eastlawn Trail","address2":null,"city":"Montgomery","state":"AL","zip":"36195"},
        {"ID":999173,"address1":"359 East Park","address2":null,"city":"Atlanta","state":"GA","zip":"31132"},
        {"ID":999174,"address1":"60 Hermina Lane","address2":null,"city":"Philadelphia","state":"PA","zip":"19093"},
        {"ID":999175,"address1":"020 Crest Line Pass","address2":null,"city":"Garland","state":"TX","zip":"75049"},
        {"ID":999176,"address1":"8292 Morrow Alley","address2":null,"city":"Orlando","state":"FL","zip":"32885"},
        {"ID":999177,"address1":"5095 Dwight Hill","address2":null,"city":"Tuscaloosa","state":"AL","zip":"35405"},
        {"ID":999178,"address1":"69989 Washington Center","address2":null,"city":"Saginaw","state":"MI","zip":"48609"},
        {"ID":999179,"address1":"966 Hooker Road","address2":null,"city":"Nashville","state":"TN","zip":"37250"},
        {"ID":999180,"address1":"59 Ludington Terrace","address2":null,"city":"Bozeman","state":"MT","zip":"59771"},
        {"ID":999181,"address1":"6207 Atwood Court","address2":null,"city":"Vancouver","state":"WA","zip":"98682"},
        {"ID":999182,"address1":"55136 Little Fleur Trail","address2":null,"city":"San Antonio","state":"TX","zip":"78296"},
        {"ID":999183,"address1":"69 Park Meadow Trail","address2":null,"city":"Johnstown","state":"PA","zip":"15906"},
        {"ID":999184,"address1":"4 Prairie Rose Center","address2":null,"city":"Tulsa","state":"OK","zip":"74170"},
        {"ID":999185,"address1":"6 Rigney Plaza","address2":"Suite 80","city":"Bakersfield","state":"CA","zip":"93399"},
        {"ID":999186,"address1":"8 Oak Valley Parkway","address2":null,"city":"Naples","state":"FL","zip":"34108"},
        {"ID":999187,"address1":"35 Sage Park","address2":null,"city":"Denver","state":"CO","zip":"80209"},
        {"ID":999188,"address1":"76 Huxley Avenue","address2":"5th Floor","city":"Pensacola","state":"FL","zip":"32575"},
        {"ID":999189,"address1":"6 Pepper Wood Point","address2":null,"city":"Sacramento","state":"CA","zip":"95823"},
        {"ID":999190,"address1":"87 Brown Junction","address2":null,"city":"Augusta","state":"GA","zip":"30905"},
        {"ID":999191,"address1":"293 Bellgrove Plaza","address2":"Apt 1987","city":"Boca Raton","state":"FL","zip":"33499"},
        {"ID":999192,"address1":"9492 Waxwing Drive","address2":null,"city":"Oklahoma City","state":"OK","zip":"73152"},
        {"ID":999193,"address1":"19469 Bonner Avenue","address2":null,"city":"Dallas","state":"TX","zip":"75392"},
        {"ID":999194,"address1":"85 Oakridge Lane","address2":"Room 215","city":"Washington","state":"DC","zip":"20456"},
        {"ID":999195,"address1":"21 Packers Pass","address2":null,"city":"Garland","state":"TX","zip":"75044"},
        {"ID":999196,"address1":"204 Rowland Parkway","address2":null,"city":"Joliet","state":"IL","zip":"60435"},
        {"ID":999197,"address1":"9555 Lotheville Pass","address2":null,"city":"Seattle","state":"WA","zip":"98109"},
        {"ID":999198,"address1":"0 Redwing Road","address2":null,"city":"Sacramento","state":"CA","zip":"94273"},
        {"ID":999199,"address1":"3 Carberry Point","address2":null,"city":"Rochester","state":"NY","zip":"14624"},
        {"ID":999200,"address1":"62 Wayridge Center","address2":null,"city":"Charleston","state":"WV","zip":"25362"},
        {"ID":999201,"address1":"1 Northland Way","address2":null,"city":"Carlsbad","state":"CA","zip":"92013"},
        {"ID":999202,"address1":"5106 Evergreen Lane","address2":null,"city":"Omaha","state":"NE","zip":"68105"},
        {"ID":999203,"address1":"7297 Arkansas Plaza","address2":null,"city":"Charleston","state":"SC","zip":"29424"},
        {"ID":999204,"address1":"08 Cordelia Park","address2":null,"city":"Philadelphia","state":"PA","zip":"19172"},
        {"ID":999205,"address1":"9386 Doe Crossing Center","address2":"PO Box 82634","city":"Albany","state":"NY","zip":"12205"},
        {"ID":999206,"address1":"2 Dorton Junction","address2":null,"city":"Springfield","state":"MA","zip":"01152"},
        {"ID":999207,"address1":"33950 Lake View Plaza","address2":null,"city":"Minneapolis","state":"MN","zip":"55448"},
        {"ID":999208,"address1":"35 Drewry Court","address2":null,"city":"Tallahassee","state":"FL","zip":"32304"},
        {"ID":999209,"address1":"735 Victoria Lane","address2":null,"city":"Charlotte","state":"NC","zip":"28242"},
        {"ID":999210,"address1":"56 Nova Point","address2":null,"city":"Seattle","state":"WA","zip":"98140"},
        {"ID":999211,"address1":"5 Corben Way","address2":null,"city":"Portsmouth","state":"NH","zip":"00214"},
        {"ID":999212,"address1":"74100 Dryden Way","address2":null,"city":"Greensboro","state":"NC","zip":"27455"},
        {"ID":999213,"address1":"05038 Havey Pass","address2":null,"city":"Boston","state":"MA","zip":"02104"},
        {"ID":999214,"address1":"34810 Darwin Hill","address2":"PO Box 59207","city":"Boise","state":"ID","zip":"83727"},
        {"ID":999215,"address1":"65442 Granby Terrace","address2":null,"city":"Denver","state":"CO","zip":"80217"},
        {"ID":999216,"address1":"7613 Gulseth Point","address2":"Room 1061","city":"Memphis","state":"TN","zip":"38136"},
        {"ID":999217,"address1":"220 Hanson Park","address2":null,"city":"Birmingham","state":"AL","zip":"35290"},
        {"ID":999218,"address1":"97890 Farragut Alley","address2":null,"city":"Stamford","state":"CT","zip":"06922"},
        {"ID":999219,"address1":"722 Claremont Way","address2":null,"city":"Troy","state":"MI","zip":"48098"},
        {"ID":999220,"address1":"38 Valley Edge Lane","address2":null,"city":"Jacksonville","state":"FL","zip":"32244"},
        {"ID":999221,"address1":"9837 Melby Circle","address2":null,"city":"Anniston","state":"AL","zip":"36205"},
        {"ID":999222,"address1":"0765 Bayside Plaza","address2":null,"city":"Portland","state":"OR","zip":"97232"},
        {"ID":999223,"address1":"2 Thierer Place","address2":null,"city":"Lincoln","state":"NE","zip":"68517"},
        {"ID":999224,"address1":"7 Kedzie Drive","address2":null,"city":"Roanoke","state":"VA","zip":"24048"},
        {"ID":999225,"address1":"0587 Forster Road","address2":null,"city":"Tampa","state":"FL","zip":"33686"},
        {"ID":999226,"address1":"4994 Northfield Hill","address2":"Suite 34","city":"Louisville","state":"KY","zip":"40266"},
        {"ID":999227,"address1":"033 Esch Park","address2":null,"city":"New Orleans","state":"LA","zip":"70165"},
        {"ID":999228,"address1":"9 Garrison Plaza","address2":"1st Floor","city":"El Paso","state":"TX","zip":"79934"},
        {"ID":999229,"address1":"94 Bay Center","address2":null,"city":"Wilmington","state":"DE","zip":"19897"},
        {"ID":999230,"address1":"89478 Farragut Place","address2":null,"city":"Austin","state":"TX","zip":"78789"},
        {"ID":999231,"address1":"1 Almo Hill","address2":null,"city":"Muskegon","state":"MI","zip":"49444"},
        {"ID":999232,"address1":"3 Namekagon Place","address2":"Apt 1038","city":"Tallahassee","state":"FL","zip":"32309"},
        {"ID":999233,"address1":"64199 Elmside Street","address2":null,"city":"West Palm Beach","state":"FL","zip":"33416"},
        {"ID":999234,"address1":"006 Cascade Trail","address2":null,"city":"Buffalo","state":"NY","zip":"14269"},
        {"ID":999235,"address1":"3 Gateway Pass","address2":null,"city":"Washington","state":"DC","zip":"20436"},
        {"ID":999236,"address1":"669 Monument Junction","address2":null,"city":"Kansas City","state":"MO","zip":"64190"},
        {"ID":999237,"address1":"6448 Mosinee Drive","address2":null,"city":"Oceanside","state":"CA","zip":"92056"},
        {"ID":999238,"address1":"913 Weeping Birch Trail","address2":null,"city":"San Francisco","state":"CA","zip":"94121"},
        {"ID":999239,"address1":"525 Mosinee Center","address2":null,"city":"Philadelphia","state":"PA","zip":"19178"},
        {"ID":999240,"address1":"3 Brickson Park Junction","address2":null,"city":"Des Moines","state":"IA","zip":"50310"},
        {"ID":999241,"address1":"11865 Eagle Crest Drive","address2":"6th Floor","city":"Southfield","state":"MI","zip":"48076"},
        {"ID":999242,"address1":"71138 Harper Trail","address2":"Apt 165","city":"New Haven","state":"CT","zip":"06538"},
        {"ID":999243,"address1":"5 Twin Pines Parkway","address2":null,"city":"Jacksonville","state":"FL","zip":"32236"},
        {"ID":999244,"address1":"264 Washington Way","address2":null,"city":"Palo Alto","state":"CA","zip":"94302"},
        {"ID":999245,"address1":"36942 Pond Crossing","address2":null,"city":"Seattle","state":"WA","zip":"98148"},
        {"ID":999246,"address1":"66347 7th Trail","address2":null,"city":"Cleveland","state":"OH","zip":"44125"},
        {"ID":999247,"address1":"83 Eagle Crest Road","address2":null,"city":"Amarillo","state":"TX","zip":"79182"},
        {"ID":999248,"address1":"1892 Milwaukee Way","address2":null,"city":"Winston Salem","state":"NC","zip":"27150"},
        {"ID":999249,"address1":"43703 Commercial Way","address2":null,"city":"Denver","state":"CO","zip":"80299"},
        {"ID":999250,"address1":"40030 Barby Trail","address2":"Apt 661","city":"Peoria","state":"IL","zip":"61640"},
        {"ID":999251,"address1":"707 Ludington Lane","address2":null,"city":"Springfield","state":"IL","zip":"62718"},
        {"ID":999252,"address1":"05312 Kropf Alley","address2":"Suite 30","city":"Phoenix","state":"AZ","zip":"85083"},
        {"ID":999253,"address1":"83418 Superior Circle","address2":null,"city":"Buffalo","state":"NY","zip":"14225"},
        {"ID":999254,"address1":"33649 Packers Point","address2":null,"city":"Oceanside","state":"CA","zip":"92056"},
        {"ID":999255,"address1":"05 Coleman Trail","address2":null,"city":"Wilmington","state":"DE","zip":"19897"},
        {"ID":999256,"address1":"1 Pearson Alley","address2":null,"city":"Miami","state":"FL","zip":"33233"},
        {"ID":999257,"address1":"3958 Caliangt Street","address2":null,"city":"Augusta","state":"GA","zip":"30905"},
        {"ID":999258,"address1":"8072 Rusk Parkway","address2":null,"city":"Berkeley","state":"CA","zip":"94705"},
        {"ID":999259,"address1":"83 Knutson Court","address2":null,"city":"Decatur","state":"GA","zip":"30033"},
        {"ID":999260,"address1":"640 Riverside Plaza","address2":null,"city":"San Antonio","state":"TX","zip":"78230"},
        {"ID":999261,"address1":"12162 Little Fleur Plaza","address2":"Room 511","city":"Nashville","state":"TN","zip":"37205"},
        {"ID":999262,"address1":"1 Scoville Plaza","address2":null,"city":"Tulsa","state":"OK","zip":"74126"},
        {"ID":999263,"address1":"27 4th Pass","address2":"20th Floor","city":"Detroit","state":"MI","zip":"48267"},
        {"ID":999264,"address1":"1 Hagan Pass","address2":"Apt 768","city":"Littleton","state":"CO","zip":"80161"},
        {"ID":999265,"address1":"337 Jenna Court","address2":null,"city":"Kansas City","state":"MO","zip":"64125"},
        {"ID":999266,"address1":"4621 Anthes Lane","address2":null,"city":"Charlotte","state":"NC","zip":"28210"},
        {"ID":999267,"address1":"79 Emmet Court","address2":null,"city":"Charlotte","state":"NC","zip":"28256"},
        {"ID":999268,"address1":"7 Roth Drive","address2":null,"city":"Reno","state":"NV","zip":"89510"},
        {"ID":999269,"address1":"8230 Ridge Oak Park","address2":null,"city":"New York City","state":"NY","zip":"10019"},
        {"ID":999270,"address1":"13 Springs Junction","address2":null,"city":"San Jose","state":"CA","zip":"95128"},
        {"ID":999271,"address1":"57708 Toban Avenue","address2":null,"city":"Boston","state":"MA","zip":"02114"},
        {"ID":999272,"address1":"34 Anthes Avenue","address2":"Room 1644","city":"Austin","state":"TX","zip":"78726"},
        {"ID":999273,"address1":"6379 Division Pass","address2":null,"city":"Charlotte","state":"NC","zip":"28235"},
        {"ID":999274,"address1":"9233 Pine View Terrace","address2":"Room 1914","city":"Miami","state":"FL","zip":"33245"},
        {"ID":999275,"address1":"549 Judy Parkway","address2":null,"city":"Phoenix","state":"AZ","zip":"85072"},
        {"ID":999276,"address1":"3653 Monterey Avenue","address2":null,"city":"Fort Lauderdale","state":"FL","zip":"33325"},
        {"ID":999277,"address1":"82 Fairfield Place","address2":null,"city":"Lakewood","state":"WA","zip":"98498"},
        {"ID":999278,"address1":"31962 Boyd Pass","address2":"Room 179","city":"Largo","state":"FL","zip":"33777"},
        {"ID":999279,"address1":"4757 Jana Pass","address2":null,"city":"Jackson","state":"TN","zip":"38308"},
        {"ID":999280,"address1":"60210 Larry Way","address2":null,"city":"Los Angeles","state":"CA","zip":"90005"},
        {"ID":999281,"address1":"79 Granby Pass","address2":null,"city":"Boulder","state":"CO","zip":"80310"},
        {"ID":999282,"address1":"3631 Fuller Center","address2":null,"city":"Green Bay","state":"WI","zip":"54305"},
        {"ID":999283,"address1":"21 Sachs Road","address2":null,"city":"Sacramento","state":"CA","zip":"94291"},
        {"ID":999284,"address1":"5013 Macpherson Pass","address2":"Apt 737","city":"Virginia Beach","state":"VA","zip":"23454"},
        {"ID":999285,"address1":"01 Sachtjen Circle","address2":null,"city":"Saint Petersburg","state":"FL","zip":"33737"},
        {"ID":999286,"address1":"0787 Stone Corner Terrace","address2":null,"city":"Spring","state":"TX","zip":"77388"},
        {"ID":999287,"address1":"6 Buell Point","address2":null,"city":"Detroit","state":"MI","zip":"48275"},
        {"ID":999288,"address1":"7962 Lake View Parkway","address2":"Suite 96","city":"Springfield","state":"MA","zip":"01129"},
        {"ID":999289,"address1":"18981 Graedel Place","address2":null,"city":"Inglewood","state":"CA","zip":"90305"},
        {"ID":999290,"address1":"5278 Hermina Road","address2":null,"city":"Baton Rouge","state":"LA","zip":"70883"},
        {"ID":999291,"address1":"7 Hansons Park","address2":null,"city":"Dayton","state":"OH","zip":"45440"},
        {"ID":999292,"address1":"1 Starling Drive","address2":"Room 1045","city":"Dayton","state":"OH","zip":"45408"},
        {"ID":999293,"address1":"0 Farmco Lane","address2":null,"city":"Chicago","state":"IL","zip":"60619"},
        {"ID":999294,"address1":"9463 6th Junction","address2":"4th Floor","city":"Tallahassee","state":"FL","zip":"32314"},
        {"ID":999295,"address1":"51108 Petterle Hill","address2":null,"city":"Olympia","state":"WA","zip":"98516"},
        {"ID":999296,"address1":"5 Comanche Street","address2":null,"city":"Macon","state":"GA","zip":"31217"},
        {"ID":999297,"address1":"45 Roxbury Court","address2":null,"city":"Chattanooga","state":"TN","zip":"37405"},
        {"ID":999298,"address1":"993 Warbler Place","address2":null,"city":"New York City","state":"NY","zip":"10150"},
        {"ID":999299,"address1":"74394 Butternut Hill","address2":null,"city":"Naples","state":"FL","zip":"34114"},
        {"ID":999300,"address1":"05 Rockefeller Center","address2":null,"city":"Philadelphia","state":"PA","zip":"19104"},
        {"ID":999301,"address1":"5373 Coleman Way","address2":null,"city":"New York City","state":"NY","zip":"10165"},
        {"ID":999302,"address1":"80543 Eastwood Pass","address2":"15th Floor","city":"Salt Lake City","state":"UT","zip":"84170"},
        {"ID":999303,"address1":"2670 Vernon Street","address2":"PO Box 94294","city":"Brooklyn","state":"NY","zip":"11241"},
        {"ID":999304,"address1":"7 Eastlawn Road","address2":null,"city":"Portland","state":"OR","zip":"97286"},
        {"ID":999305,"address1":"7 Columbus Avenue","address2":null,"city":"Punta Gorda","state":"FL","zip":"33982"},
        {"ID":999306,"address1":"57 Crownhardt Street","address2":null,"city":"New York City","state":"NY","zip":"10099"},
        {"ID":999307,"address1":"22715 Mandrake Avenue","address2":null,"city":"Wilmington","state":"DE","zip":"19897"},
        {"ID":999308,"address1":"265 Nevada Circle","address2":null,"city":"Pensacola","state":"FL","zip":"32590"},
        {"ID":999309,"address1":"25988 Rutledge Center","address2":null,"city":"New York City","state":"NY","zip":"10060"},
        {"ID":999310,"address1":"15 Lakeland Park","address2":null,"city":"Los Angeles","state":"CA","zip":"90020"},
        {"ID":999311,"address1":"24 Glacier Hill Park","address2":null,"city":"Des Moines","state":"IA","zip":"50320"},
        {"ID":999312,"address1":"81174 Scoville Park","address2":null,"city":"Saint Louis","state":"MO","zip":"63196"},
        {"ID":999313,"address1":"4 Division Junction","address2":null,"city":"Boca Raton","state":"FL","zip":"33499"},
        {"ID":999314,"address1":"934 Dorton Pass","address2":null,"city":"Pasadena","state":"CA","zip":"91117"},
        {"ID":999315,"address1":"2 Fulton Trail","address2":null,"city":"Harrisburg","state":"PA","zip":"17105"},
        {"ID":999316,"address1":"773 Warbler Terrace","address2":"Suite 98","city":"Stockton","state":"CA","zip":"95205"},
        {"ID":999317,"address1":"94682 Autumn Leaf Point","address2":null,"city":"Fort Collins","state":"CO","zip":"80525"},
        {"ID":999318,"address1":"5 Maple Wood Pass","address2":null,"city":"Tampa","state":"FL","zip":"33620"},
        {"ID":999319,"address1":"2234 Darwin Parkway","address2":"PO Box 41141","city":"Bethesda","state":"MD","zip":"20892"},
        {"ID":999320,"address1":"77 Pankratz Circle","address2":null,"city":"Pasadena","state":"CA","zip":"91199"},
        {"ID":999321,"address1":"0396 Golf Point","address2":"PO Box 25257","city":"Wilmington","state":"DE","zip":"19810"},
        {"ID":999322,"address1":"663 Dakota Road","address2":null,"city":"Los Angeles","state":"CA","zip":"90094"},
        {"ID":999323,"address1":"789 Cascade Place","address2":null,"city":"Tacoma","state":"WA","zip":"98417"},
        {"ID":999324,"address1":"69063 Reindahl Circle","address2":"18th Floor","city":"El Paso","state":"TX","zip":"88535"},
        {"ID":999325,"address1":"4682 5th Park","address2":"PO Box 91703","city":"Huntsville","state":"AL","zip":"35895"},
        {"ID":999326,"address1":"16 John Wall Park","address2":"PO Box 9018","city":"Savannah","state":"GA","zip":"31405"},
        {"ID":999327,"address1":"84 Cambridge Center","address2":null,"city":"Birmingham","state":"AL","zip":"35215"},
        {"ID":999328,"address1":"153 Pawling Parkway","address2":null,"city":"Atlanta","state":"GA","zip":"30323"},
        {"ID":999329,"address1":"06 Cascade Road","address2":null,"city":"South Bend","state":"IN","zip":"46620"},
        {"ID":999330,"address1":"59304 Oakridge Way","address2":null,"city":"Salem","state":"OR","zip":"97306"},
        {"ID":999331,"address1":"216 Fieldstone Way","address2":null,"city":"Cincinnati","state":"OH","zip":"45218"},
        {"ID":999332,"address1":"749 Lake View Parkway","address2":null,"city":"Macon","state":"GA","zip":"31210"},
        {"ID":999333,"address1":"161 Spohn Center","address2":null,"city":"Knoxville","state":"TN","zip":"37939"},
        {"ID":999334,"address1":"809 Union Lane","address2":null,"city":"San Antonio","state":"TX","zip":"78230"},
        {"ID":999335,"address1":"534 Ruskin Center","address2":null,"city":"Dallas","state":"TX","zip":"75353"},
        {"ID":999336,"address1":"2891 Moland Avenue","address2":null,"city":"Charlotte","state":"NC","zip":"28299"},
        {"ID":999337,"address1":"3 Mccormick Alley","address2":null,"city":"Salt Lake City","state":"UT","zip":"84125"},
        {"ID":999338,"address1":"28 Melrose Hill","address2":null,"city":"Brooklyn","state":"NY","zip":"11231"},
        {"ID":999339,"address1":"456 Holy Cross Trail","address2":null,"city":"Anchorage","state":"AK","zip":"99512"},
        {"ID":999340,"address1":"2 Sherman Street","address2":null,"city":"Albuquerque","state":"NM","zip":"87105"},
        {"ID":999341,"address1":"90 Dovetail Park","address2":null,"city":"Fort Lauderdale","state":"FL","zip":"33330"},
        {"ID":999342,"address1":"26477 Hooker Junction","address2":"Room 624","city":"Long Beach","state":"CA","zip":"90810"},
        {"ID":999343,"address1":"9264 Division Alley","address2":null,"city":"Naples","state":"FL","zip":"33961"},
        {"ID":999344,"address1":"4158 Sutteridge Point","address2":"Suite 56","city":"Honolulu","state":"HI","zip":"96850"},
        {"ID":999345,"address1":"9860 Ridgeway Plaza","address2":null,"city":"Baltimore","state":"MD","zip":"21211"},
        {"ID":999346,"address1":"0771 Ronald Regan Road","address2":null,"city":"Sacramento","state":"CA","zip":"95865"},
        {"ID":999347,"address1":"14 Badeau Parkway","address2":null,"city":"Los Angeles","state":"CA","zip":"90101"},
        {"ID":999348,"address1":"7 Carberry Alley","address2":null,"city":"Longview","state":"TX","zip":"75605"},
        {"ID":999349,"address1":"23 Di Loreto Street","address2":"PO Box 25230","city":"Tuscaloosa","state":"AL","zip":"35405"},
        {"ID":999350,"address1":"5 Buell Pass","address2":null,"city":"Buffalo","state":"NY","zip":"14269"},
        {"ID":999351,"address1":"3352 Amoth Lane","address2":null,"city":"Charlotte","state":"NC","zip":"28256"},
        {"ID":999352,"address1":"60 Sundown Place","address2":null,"city":"Raleigh","state":"NC","zip":"27610"},
        {"ID":999353,"address1":"2 Utah Way","address2":null,"city":"Alexandria","state":"VA","zip":"22309"},
        {"ID":999354,"address1":"83 West Hill","address2":null,"city":"Fort Lauderdale","state":"FL","zip":"33336"},
        {"ID":999355,"address1":"579 Grasskamp Park","address2":null,"city":"Colorado Springs","state":"CO","zip":"80920"},
        {"ID":999356,"address1":"203 Mesta Center","address2":null,"city":"Tucson","state":"AZ","zip":"85748"},
        {"ID":999357,"address1":"159 Hazelcrest Crossing","address2":null,"city":"Madison","state":"WI","zip":"53785"},
        {"ID":999358,"address1":"89807 Nova Court","address2":null,"city":"Cincinnati","state":"OH","zip":"45249"},
        {"ID":999359,"address1":"174 Oxford Street","address2":"Room 456","city":"Northridge","state":"CA","zip":"91328"},
        {"ID":999360,"address1":"5 Kinsman Terrace","address2":null,"city":"Zephyrhills","state":"FL","zip":"33543"},
        {"ID":999361,"address1":"785 Golden Leaf Parkway","address2":null,"city":"Washington","state":"DC","zip":"20062"},
        {"ID":999362,"address1":"42302 Lotheville Avenue","address2":null,"city":"Houston","state":"TX","zip":"77075"},
        {"ID":999363,"address1":"61 Texas Way","address2":null,"city":"Sioux Falls","state":"SD","zip":"57198"},
        {"ID":999364,"address1":"915 Hanover Trail","address2":null,"city":"Seattle","state":"WA","zip":"98133"},
        {"ID":999365,"address1":"5 Upham Pass","address2":"Apt 1706","city":"Boise","state":"ID","zip":"83705"},
        {"ID":999366,"address1":"9 Southridge Plaza","address2":null,"city":"Oklahoma City","state":"OK","zip":"73109"},
        {"ID":999367,"address1":"5939 Gale Trail","address2":"12th Floor","city":"Louisville","state":"KY","zip":"40287"},
        {"ID":999368,"address1":"251 Armistice Way","address2":null,"city":"London","state":"KY","zip":"40745"},
        {"ID":999369,"address1":"14631 Anderson Point","address2":null,"city":"Toledo","state":"OH","zip":"43610"},
        {"ID":999370,"address1":"76 Carpenter Parkway","address2":null,"city":"Temple","state":"TX","zip":"76505"},
        {"ID":999371,"address1":"759 Holmberg Pass","address2":"Room 1085","city":"Fort Pierce","state":"FL","zip":"34981"},
        {"ID":999372,"address1":"53308 Corry Parkway","address2":null,"city":"Corona","state":"CA","zip":"92878"},
        {"ID":999373,"address1":"0417 3rd Place","address2":null,"city":"Rochester","state":"NY","zip":"14624"},
        {"ID":999374,"address1":"1 Nevada Way","address2":null,"city":"Birmingham","state":"AL","zip":"35215"},
        {"ID":999375,"address1":"037 Hanson Place","address2":null,"city":"Huntsville","state":"AL","zip":"35805"},
        {"ID":999376,"address1":"49780 Dottie Lane","address2":null,"city":"Minneapolis","state":"MN","zip":"55428"},
        {"ID":999377,"address1":"30 Dorton Way","address2":null,"city":"Savannah","state":"GA","zip":"31416"},
        {"ID":999378,"address1":"7226 Dakota Plaza","address2":null,"city":"Brea","state":"CA","zip":"92822"},
        {"ID":999379,"address1":"3 Dakota Parkway","address2":"Apt 672","city":"Inglewood","state":"CA","zip":"90398"},
        {"ID":999380,"address1":"47277 Hudson Hill","address2":"Room 1972","city":"Shreveport","state":"LA","zip":"71130"},
        {"ID":999381,"address1":"7 4th Court","address2":null,"city":"Austin","state":"TX","zip":"78769"},
        {"ID":999382,"address1":"62 Rigney Crossing","address2":"PO Box 95332","city":"Saint Paul","state":"MN","zip":"55146"},
        {"ID":999383,"address1":"24 Kensington Parkway","address2":"Room 1784","city":"Santa Fe","state":"NM","zip":"87592"},
        {"ID":999384,"address1":"2993 Mallory Street","address2":null,"city":"Montgomery","state":"AL","zip":"36114"},
        {"ID":999385,"address1":"30 Dixon Parkway","address2":"Apt 2000","city":"Washington","state":"DC","zip":"20470"},
        {"ID":999386,"address1":"3753 Schurz Road","address2":null,"city":"Nashville","state":"TN","zip":"37210"},
        {"ID":999387,"address1":"4 Village Green Trail","address2":null,"city":"Dearborn","state":"MI","zip":"48126"},
        {"ID":999388,"address1":"48846 Hauk Plaza","address2":null,"city":"San Antonio","state":"TX","zip":"78235"},
        {"ID":999389,"address1":"7 Independence Drive","address2":null,"city":"Huntington","state":"WV","zip":"25721"},
        {"ID":999390,"address1":"1 Spenser Road","address2":null,"city":"Winston Salem","state":"NC","zip":"27157"},
        {"ID":999391,"address1":"9809 Lien Hill","address2":"PO Box 15838","city":"Chattanooga","state":"TN","zip":"37450"},
        {"ID":999392,"address1":"1150 Northfield Lane","address2":null,"city":"Richmond","state":"VA","zip":"23228"},
        {"ID":999393,"address1":"1 Armistice Junction","address2":null,"city":"Washington","state":"DC","zip":"20503"},
        {"ID":999394,"address1":"141 Talmadge Circle","address2":"PO Box 42801","city":"Midland","state":"TX","zip":"79710"},
        {"ID":999395,"address1":"42 Delladonna Point","address2":null,"city":"Shreveport","state":"LA","zip":"71115"},
        {"ID":999396,"address1":"55862 Westerfield Avenue","address2":null,"city":"Miami","state":"FL","zip":"33129"},
        {"ID":999397,"address1":"77 Dexter Alley","address2":"Suite 48","city":"Huntington","state":"WV","zip":"25709"},
        {"ID":999398,"address1":"04411 Northland Park","address2":null,"city":"New York City","state":"NY","zip":"10150"},
        {"ID":999399,"address1":"24 Londonderry Street","address2":null,"city":"Fort Smith","state":"AR","zip":"72916"},
        {"ID":999400,"address1":"24 Sutherland Center","address2":null,"city":"Fort Worth","state":"TX","zip":"76192"},
        {"ID":999401,"address1":"891 Ronald Regan Way","address2":null,"city":"San Diego","state":"CA","zip":"92121"},
        {"ID":999402,"address1":"977 Kensington Park","address2":null,"city":"Memphis","state":"TN","zip":"38131"},
        {"ID":999403,"address1":"9921 Saint Paul Center","address2":"Apt 36","city":"Odessa","state":"TX","zip":"79764"},
        {"ID":999404,"address1":"45477 Lakeland Crossing","address2":null,"city":"Houston","state":"TX","zip":"77095"},
        {"ID":999405,"address1":"319 Sloan Junction","address2":null,"city":"Sacramento","state":"CA","zip":"95894"},
        {"ID":999406,"address1":"3538 Melby Circle","address2":"Suite 53","city":"Oklahoma City","state":"OK","zip":"73147"},
        {"ID":999407,"address1":"5566 Fieldstone Avenue","address2":null,"city":"Oklahoma City","state":"OK","zip":"73142"},
        {"ID":999408,"address1":"206 Hovde Parkway","address2":"Room 633","city":"Tempe","state":"AZ","zip":"85284"},
        {"ID":999409,"address1":"1 Algoma Trail","address2":null,"city":"Charleston","state":"WV","zip":"25389"},
        {"ID":999410,"address1":"962 Village Plaza","address2":null,"city":"Fresno","state":"CA","zip":"93794"},
        {"ID":999411,"address1":"65 Derek Center","address2":null,"city":"Brooklyn","state":"NY","zip":"11236"},
        {"ID":999412,"address1":"3186 Graceland Lane","address2":null,"city":"Tacoma","state":"WA","zip":"98447"},
        {"ID":999413,"address1":"991 Stang Way","address2":null,"city":"Boca Raton","state":"FL","zip":"33487"},
        {"ID":999414,"address1":"24515 Carioca Junction","address2":"Suite 52","city":"Bronx","state":"NY","zip":"10474"},
        {"ID":999415,"address1":"34495 Aberg Park","address2":null,"city":"Gastonia","state":"NC","zip":"28055"},
        {"ID":999416,"address1":"34 Cardinal Junction","address2":"Apt 1371","city":"Saint Paul","state":"MN","zip":"55127"},
        {"ID":999417,"address1":"2059 Maple Wood Parkway","address2":"10th Floor","city":"Charlotte","state":"NC","zip":"28225"},
        {"ID":999418,"address1":"21332 Walton Road","address2":null,"city":"Colorado Springs","state":"CO","zip":"80905"},
        {"ID":999419,"address1":"6897 Stuart Crossing","address2":null,"city":"Pueblo","state":"CO","zip":"81015"},
        {"ID":999420,"address1":"8938 South Court","address2":null,"city":"Florence","state":"SC","zip":"29505"},
        {"ID":999421,"address1":"38 Ilene Terrace","address2":"PO Box 65959","city":"Chicago","state":"IL","zip":"60614"},
        {"ID":999422,"address1":"0 Vera Avenue","address2":null,"city":"Fresno","state":"CA","zip":"93715"},
        {"ID":999423,"address1":"3 Johnson Place","address2":null,"city":"Portland","state":"ME","zip":"04109"},
        {"ID":999424,"address1":"51 Thierer Parkway","address2":null,"city":"Lancaster","state":"PA","zip":"17622"},
        {"ID":999425,"address1":"67 Stang Alley","address2":null,"city":"Jackson","state":"TN","zip":"38308"},
        {"ID":999426,"address1":"70 Nobel Terrace","address2":null,"city":"Minneapolis","state":"MN","zip":"55441"},
        {"ID":999427,"address1":"84 Michigan Trail","address2":null,"city":"Englewood","state":"CO","zip":"80150"},
        {"ID":999428,"address1":"17169 Manitowish Crossing","address2":null,"city":"Eugene","state":"OR","zip":"97405"},
        {"ID":999429,"address1":"3428 Gerald Alley","address2":null,"city":"Salt Lake City","state":"UT","zip":"84120"},
        {"ID":999430,"address1":"5 Ruskin Junction","address2":null,"city":"Detroit","state":"MI","zip":"48224"},
        {"ID":999431,"address1":"5904 Helena Court","address2":null,"city":"Bakersfield","state":"CA","zip":"93386"},
        {"ID":999432,"address1":"6 Troy Circle","address2":null,"city":"Newark","state":"NJ","zip":"07112"},
        {"ID":999433,"address1":"8 Magdeline Trail","address2":null,"city":"Sarasota","state":"FL","zip":"34238"},
        {"ID":999434,"address1":"442 Havey Plaza","address2":null,"city":"Miami","state":"FL","zip":"33142"},
        {"ID":999435,"address1":"5 Dapin Junction","address2":null,"city":"Spring Hill","state":"FL","zip":"34611"},
        {"ID":999436,"address1":"5 Dennis Park","address2":null,"city":"Lees Summit","state":"MO","zip":"64082"},
        {"ID":999437,"address1":"99233 Waywood Drive","address2":null,"city":"Plano","state":"TX","zip":"75074"},
        {"ID":999438,"address1":"7954 Continental Circle","address2":null,"city":"Washington","state":"DC","zip":"20041"},
        {"ID":999439,"address1":"18 Barby Pass","address2":null,"city":"Maple Plain","state":"MN","zip":"55579"},
        {"ID":999440,"address1":"40 Stang Park","address2":null,"city":"Nashville","state":"TN","zip":"37240"},
        {"ID":999441,"address1":"9 Almo Court","address2":null,"city":"Fort Myers","state":"FL","zip":"33913"},
        {"ID":999442,"address1":"56772 Main Point","address2":null,"city":"Duluth","state":"GA","zip":"30096"},
        {"ID":999443,"address1":"969 Surrey Point","address2":null,"city":"Amarillo","state":"TX","zip":"79118"},
        {"ID":999444,"address1":"99 Loomis Plaza","address2":null,"city":"Kansas City","state":"MO","zip":"64125"},
        {"ID":999445,"address1":"785 Melody Trail","address2":null,"city":"Hartford","state":"CT","zip":"06183"},
        {"ID":999446,"address1":"7 Grim Park","address2":null,"city":"Savannah","state":"GA","zip":"31410"},
        {"ID":999447,"address1":"4991 Weeping Birch Way","address2":null,"city":"Suffolk","state":"VA","zip":"23436"},
        {"ID":999448,"address1":"00 Judy Road","address2":"Room 1394","city":"Houston","state":"TX","zip":"77035"},
        {"ID":999449,"address1":"42288 Tony Road","address2":"Room 181","city":"Pasadena","state":"CA","zip":"91103"},
        {"ID":999450,"address1":"97876 Ilene Pass","address2":null,"city":"West Palm Beach","state":"FL","zip":"33416"},
        {"ID":999451,"address1":"1688 Messerschmidt Hill","address2":null,"city":"Buffalo","state":"NY","zip":"14225"},
        {"ID":999452,"address1":"71416 Eastlawn Way","address2":null,"city":"Canton","state":"OH","zip":"44710"},
        {"ID":999453,"address1":"14 Graedel Trail","address2":null,"city":"Young America","state":"MN","zip":"55551"},
        {"ID":999454,"address1":"44600 Arkansas Park","address2":null,"city":"Dayton","state":"OH","zip":"45403"},
        {"ID":999455,"address1":"5 Esker Trail","address2":"Apt 899","city":"Washington","state":"DC","zip":"20551"},
        {"ID":999456,"address1":"1932 Ronald Regan Way","address2":"Room 1897","city":"Toledo","state":"OH","zip":"43635"},
        {"ID":999457,"address1":"6634 Jenna Lane","address2":null,"city":"New Brunswick","state":"NJ","zip":"08922"},
        {"ID":999458,"address1":"2291 Blue Bill Park Hill","address2":null,"city":"Portland","state":"OR","zip":"97255"},
        {"ID":999459,"address1":"1593 Messerschmidt Parkway","address2":null,"city":"Peoria","state":"IL","zip":"61651"},
        {"ID":999460,"address1":"958 Lake View Center","address2":null,"city":"Cincinnati","state":"OH","zip":"45999"},
        {"ID":999461,"address1":"7272 Eggendart Avenue","address2":"PO Box 95155","city":"Saint Louis","state":"MO","zip":"63196"},
        {"ID":999462,"address1":"3251 Ridgeview Junction","address2":null,"city":"San Francisco","state":"CA","zip":"94177"},
        {"ID":999463,"address1":"3 Montana Plaza","address2":null,"city":"Sacramento","state":"CA","zip":"95828"},
        {"ID":999464,"address1":"38713 Mandrake Place","address2":null,"city":"Young America","state":"MN","zip":"55557"},
        {"ID":999465,"address1":"2741 Brentwood Road","address2":null,"city":"New York City","state":"NY","zip":"10004"},
        {"ID":999466,"address1":"29 Melby Crossing","address2":"Suite 46","city":"Kansas City","state":"KS","zip":"66105"},
        {"ID":999467,"address1":"90710 Reinke Plaza","address2":null,"city":"Houston","state":"TX","zip":"77035"},
        {"ID":999468,"address1":"55861 Old Shore Trail","address2":null,"city":"South Bend","state":"IN","zip":"46699"},
        {"ID":999469,"address1":"0693 Little Fleur Way","address2":null,"city":"Decatur","state":"IL","zip":"62525"},
        {"ID":999470,"address1":"89 Judy Drive","address2":"Apt 1939","city":"West Hartford","state":"CT","zip":"06127"},
        {"ID":999471,"address1":"4 Bellgrove Road","address2":null,"city":"Paterson","state":"NJ","zip":"07505"},
        {"ID":999472,"address1":"3 Birchwood Park","address2":null,"city":"Phoenix","state":"AZ","zip":"85053"},
        {"ID":999473,"address1":"21 Fremont Way","address2":null,"city":"Stockton","state":"CA","zip":"95298"},
        {"ID":999474,"address1":"70744 Anzinger Park","address2":"PO Box 32080","city":"Mesquite","state":"TX","zip":"75185"},
        {"ID":999475,"address1":"354 Truax Drive","address2":null,"city":"Jamaica","state":"NY","zip":"11436"},
        {"ID":999476,"address1":"2 Brown Way","address2":null,"city":"Jacksonville","state":"FL","zip":"32230"},
        {"ID":999477,"address1":"58 Spenser Junction","address2":null,"city":"Tucson","state":"AZ","zip":"85725"},
        {"ID":999478,"address1":"09640 Monterey Court","address2":null,"city":"Boca Raton","state":"FL","zip":"33499"},
        {"ID":999479,"address1":"41011 West Junction","address2":"PO Box 79585","city":"Jackson","state":"MS","zip":"39204"},
        {"ID":999480,"address1":"80 Maple Wood Terrace","address2":null,"city":"Washington","state":"DC","zip":"20073"},
        {"ID":999481,"address1":"6 Memorial Crossing","address2":"Apt 1546","city":"Las Vegas","state":"NV","zip":"89140"},
        {"ID":999482,"address1":"4547 Shasta Hill","address2":null,"city":"Atlanta","state":"GA","zip":"30316"},
        {"ID":999483,"address1":"8618 Service Drive","address2":null,"city":"Jackson","state":"MS","zip":"39236"},
        {"ID":999484,"address1":"9781 Nancy Terrace","address2":null,"city":"Salt Lake City","state":"UT","zip":"84105"},
        {"ID":999485,"address1":"5012 Riverside Park","address2":null,"city":"Pittsburgh","state":"PA","zip":"15250"},
        {"ID":999486,"address1":"51647 Red Cloud Pass","address2":null,"city":"Sacramento","state":"CA","zip":"95894"},
        {"ID":999487,"address1":"62 New Castle Trail","address2":null,"city":"Birmingham","state":"AL","zip":"35225"},
        {"ID":999488,"address1":"5233 Sloan Junction","address2":"PO Box 61324","city":"Lubbock","state":"TX","zip":"79405"},
        {"ID":999489,"address1":"9745 Namekagon Avenue","address2":null,"city":"Sarasota","state":"FL","zip":"34238"},
        {"ID":999490,"address1":"0739 Waxwing Park","address2":null,"city":"Wichita","state":"KS","zip":"67220"},
        {"ID":999491,"address1":"24470 Dixon Center","address2":"Suite 39","city":"Reston","state":"VA","zip":"20195"},
        {"ID":999492,"address1":"9 Debs Trail","address2":null,"city":"Columbus","state":"OH","zip":"43231"},
        {"ID":999493,"address1":"94686 Delladonna Point","address2":null,"city":"El Paso","state":"TX","zip":"88519"},
        {"ID":999494,"address1":"724 Pankratz Plaza","address2":null,"city":"Scranton","state":"PA","zip":"18505"},
        {"ID":999495,"address1":"8806 Sunbrook Crossing","address2":null,"city":"Washington","state":"DC","zip":"20546"},
        {"ID":999496,"address1":"11 Marcy Place","address2":null,"city":"Salt Lake City","state":"UT","zip":"84135"},
        {"ID":999497,"address1":"4 Melody Street","address2":null,"city":"Fort Lauderdale","state":"FL","zip":"33305"},
        {"ID":999498,"address1":"47626 Arrowood Plaza","address2":null,"city":"Rochester","state":"NY","zip":"14619"},
        {"ID":999499,"address1":"7342 Gateway Junction","address2":"19th Floor","city":"San Antonio","state":"TX","zip":"78250"},
        {"ID":999500,"address1":"814 Clove Terrace","address2":null,"city":"Atlanta","state":"GA","zip":"30386"}
    ]
}